[
  {
    "OBJECT_NAME": "STARLINK-32693",
    "OBJECT_ID": "24251F",
    "EPOCH": "2025-11-11T00:01:08.803776",
    "MEAN_MOTION": 15.30216904,
    "ECCENTRICITY": 0.000115,
    "INCLINATION": 53.1596,
    "RA_OF_ASC_NODE": 163.9026,
    "ARG_OF_PERICENTER": 78.2278,
    "MEAN_ANOMALY": 281.8851,
    "EPHEMERIS_TYPE": 0,
    "CLASSIFICATION_TYPE": "U",
    "NORAD_CAT_ID": 62437,
    "ELEMENT_SET_NO": 999,
    "REV_AT_EPOCH": 4981,
    "BSTAR": 0.00065423,
    "MEAN_MOTION_DOT": 0.00019077,
    "MEAN_MOTION_DDOT": 0.0,
    "TLE_LINE1": "1 62437U 24251F   25315.00079634  .00019077  00000+0  65423-3 0  9997",
    "TLE_LINE2": "2 62437  53.1596 163.9026 0001150  78.2278 281.8851 15.30216904 49817",
    "COMMENT": "Grouped by shell and plane from TLE"
  },
  {
    "OBJECT_NAME": "STARLINK-32721",
    "OBJECT_ID": "24251G",
    "EPOCH": "2025-11-11T00:50:32.680608",
    "MEAN_MOTION": 15.30211836,
    "ECCENTRICITY": 0.0002014,
    "INCLINATION": 53.1629,
    "RA_OF_ASC_NODE": 166.3125,
    "ARG_OF_PERICENTER": 219.4028,
    "MEAN_ANOMALY": 140.6826,
    "EPHEMERIS_TYPE": 0,
    "CLASSIFICATION_TYPE": "U",
    "NORAD_CAT_ID": 62438,
    "ELEMENT_SET_NO": 999,
    "REV_AT_EPOCH": 4972,
    "BSTAR": 0.0010011,
    "MEAN_MOTION_DOT": 0.00029418,
    "MEAN_MOTION_DDOT": 0.0,
    "TLE_LINE1": "1 62438U 24251G   25315.03510047  .00029418  00000+0  10011-2 0  9991",
    "TLE_LINE2": "2 62438  53.1629 166.3125 0002014 219.4028 140.6826 15.30211836 49727",
    "COMMENT": "Grouped by shell and plane from TLE"
  },
  {
    "OBJECT_NAME": "STARLINK-32709",
    "OBJECT_ID": "24251H",
    "EPOCH": "2025-11-11T00:14:14.290368",
    "MEAN_MOTION": 15.30228948,
    "ECCENTRICITY": 7.39e-05,
    "INCLINATION": 53.1599,
    "RA_OF_ASC_NODE": 166.8752,
    "ARG_OF_PERICENTER": 291.0102,
    "MEAN_ANOMALY": 69.082,
    "EPHEMERIS_TYPE": 0,
    "CLASSIFICATION_TYPE": "U",
    "NORAD_CAT_ID": 62439,
    "ELEMENT_SET_NO": 999,
    "REV_AT_EPOCH": 4977,
    "BSTAR": 0.0012242,
    "MEAN_MOTION_DOT": 0.00036107,
    "MEAN_MOTION_DDOT": 0.0,
    "TLE_LINE1": "1 62439U 24251H   25315.00988762  .00036107  00000+0  12242-2 0  9993",
    "TLE_LINE2": "2 62439  53.1599 166.8752 0000739 291.0102  69.0820 15.30228948 49771",
    "COMMENT": "Grouped by shell and plane from TLE"
  },
  {
    "OBJECT_NAME": "STARLINK-32689",
    "OBJECT_ID": "24251J",
    "EPOCH": "2025-11-11T00:23:11.376096",
    "MEAN_MOTION": 15.30230802,
    "ECCENTRICITY": 0.000107,
    "INCLINATION": 53.1615,
    "RA_OF_ASC_NODE": 166.1963,
    "ARG_OF_PERICENTER": 250.0921,
    "MEAN_ANOMALY": 109.9965,
    "EPHEMERIS_TYPE": 0,
    "CLASSIFICATION_TYPE": "U",
    "NORAD_CAT_ID": 62440,
    "ELEMENT_SET_NO": 999,
    "REV_AT_EPOCH": 4978,
    "BSTAR": 0.0011869,
    "MEAN_MOTION_DOT": 0.00034992,
    "MEAN_MOTION_DDOT": 0.0,
    "TLE_LINE1": "1 62440U 24251J   25315.01610389  .00034992  00000+0  11869-2 0  9997",
    "TLE_LINE2": "2 62440  53.1615 166.1963 0001070 250.0921 109.9965 15.30230802 49789",
    "COMMENT": "Grouped by shell and plane from TLE"
  },
  {
    "OBJECT_NAME": "STARLINK-32724",
    "OBJECT_ID": "24251K",
    "EPOCH": "2025-11-10T23:19:31.883520",
    "MEAN_MOTION": 15.30228015,
    "ECCENTRICITY": 0.0001128,
    "INCLINATION": 53.1639,
    "RA_OF_ASC_NODE": 166.632,
    "ARG_OF_PERICENTER": 200.9921,
    "MEAN_ANOMALY": 159.1034,
    "EPHEMERIS_TYPE": 0,
    "CLASSIFICATION_TYPE": "U",
    "NORAD_CAT_ID": 62441,
    "ELEMENT_SET_NO": 999,
    "REV_AT_EPOCH": 4961,
    "BSTAR": 0.0011724,
    "MEAN_MOTION_DOT": 0.00034557,
    "MEAN_MOTION_DDOT": 0.0,
    "TLE_LINE1": "1 62441U 24251K   25314.97189680  .00034557  00000+0  11724-2 0  9994",
    "TLE_LINE2": "2 62441  53.1639 166.6320 0001128 200.9921 159.1034 15.30228015 49615",
    "COMMENT": "Grouped by shell and plane from TLE"
  },
  {
    "OBJECT_NAME": "STARLINK-32291",
    "OBJECT_ID": "24251L",
    "EPOCH": "2025-11-10T14:07:22.875744",
    "MEAN_MOTION": 15.30236755,
    "ECCENTRICITY": 0.0002549,
    "INCLINATION": 53.1559,
    "RA_OF_ASC_NODE": 168.5035,
    "ARG_OF_PERICENTER": 88.9992,
    "MEAN_ANOMALY": 271.13,
    "EPHEMERIS_TYPE": 0,
    "CLASSIFICATION_TYPE": "U",
    "NORAD_CAT_ID": 62442,
    "ELEMENT_SET_NO": 999,
    "REV_AT_EPOCH": 4940,
    "BSTAR": 0.0014643999999999998,
    "MEAN_MOTION_DOT": 0.00043318,
    "MEAN_MOTION_DDOT": 0.0,
    "TLE_LINE1": "1 62442U 24251L   25314.58845921  .00043318  00000+0  14644-2 0  9998",
    "TLE_LINE2": "2 62442  53.1559 168.5035 0002549  88.9992 271.1300 15.30236755 49409",
    "COMMENT": "Grouped by shell and plane from TLE"
  },
  {
    "OBJECT_NAME": "STARLINK-32736",
    "OBJECT_ID": "24251M",
    "EPOCH": "2025-11-10T23:42:20.583072",
    "MEAN_MOTION": 15.30216876,
    "ECCENTRICITY": 0.0001309,
    "INCLINATION": 53.159,
    "RA_OF_ASC_NODE": 166.7315,
    "ARG_OF_PERICENTER": 79.0293,
    "MEAN_ANOMALY": 281.0855,
    "EPHEMERIS_TYPE": 0,
    "CLASSIFICATION_TYPE": "U",
    "NORAD_CAT_ID": 62443,
    "ELEMENT_SET_NO": 999,
    "REV_AT_EPOCH": 4961,
    "BSTAR": 0.0010252,
    "MEAN_MOTION_DOT": 0.00030143,
    "MEAN_MOTION_DDOT": 0.0,
    "TLE_LINE1": "1 62443U 24251M   25314.98773823  .00030143  00000+0  10252-2 0  9997",
    "TLE_LINE2": "2 62443  53.1590 166.7315 0001309  79.0293 281.0855 15.30216876 49614",
    "COMMENT": "Grouped by shell and plane from TLE"
  },
  {
    "OBJECT_NAME": "STARLINK-32737",
    "OBJECT_ID": "24251N",
    "EPOCH": "2025-11-10T23:11:11.526432",
    "MEAN_MOTION": 15.30224946,
    "ECCENTRICITY": 0.0001025,
    "INCLINATION": 53.1541,
    "RA_OF_ASC_NODE": 164.4658,
    "ARG_OF_PERICENTER": 101.4107,
    "MEAN_ANOMALY": 258.7009,
    "EPHEMERIS_TYPE": 0,
    "CLASSIFICATION_TYPE": "U",
    "NORAD_CAT_ID": 62444,
    "ELEMENT_SET_NO": 999,
    "REV_AT_EPOCH": 4980,
    "BSTAR": 0.001238,
    "MEAN_MOTION_DOT": 0.00036516,
    "MEAN_MOTION_DDOT": 0.0,
    "TLE_LINE1": "1 62444U 24251N   25314.96610563  .00036516  00000+0  12380-2 0  9991",
    "TLE_LINE2": "2 62444  53.1541 164.4658 0001025 101.4107 258.7009 15.30224946 49805",
    "COMMENT": "Grouped by shell and plane from TLE"
  },
  {
    "OBJECT_NAME": "STARLINK-32683",
    "OBJECT_ID": "24251P",
    "EPOCH": "2025-11-11T00:08:09.647808",
    "MEAN_MOTION": 15.30246487,
    "ECCENTRICITY": 1.04e-05,
    "INCLINATION": 53.1598,
    "RA_OF_ASC_NODE": 166.8391,
    "ARG_OF_PERICENTER": 110.4569,
    "MEAN_ANOMALY": 249.6443,
    "EPHEMERIS_TYPE": 0,
    "CLASSIFICATION_TYPE": "U",
    "NORAD_CAT_ID": 62445,
    "ELEMENT_SET_NO": 999,
    "REV_AT_EPOCH": 4977,
    "BSTAR": 0.0017496,
    "MEAN_MOTION_DOT": 0.00051897,
    "MEAN_MOTION_DDOT": 0.0,
    "TLE_LINE1": "1 62445U 24251P   25315.00566722  .00051897  00000+0  17496-2 0  9997",
    "TLE_LINE2": "2 62445  53.1598 166.8391 0000104 110.4569 249.6443 15.30246487 49778",
    "COMMENT": "Grouped by shell and plane from TLE"
  },
  {
    "OBJECT_NAME": "STARLINK-32730",
    "OBJECT_ID": "24251R",
    "EPOCH": "2025-11-11T00:41:25.416096",
    "MEAN_MOTION": 15.30230277,
    "ECCENTRICITY": 8.99e-05,
    "INCLINATION": 53.1615,
    "RA_OF_ASC_NODE": 166.2709,
    "ARG_OF_PERICENTER": 199.5167,
    "MEAN_ANOMALY": 160.58,
    "EPHEMERIS_TYPE": 0,
    "CLASSIFICATION_TYPE": "U",
    "NORAD_CAT_ID": 62447,
    "ELEMENT_SET_NO": 999,
    "REV_AT_EPOCH": 4978,
    "BSTAR": 0.0010181,
    "MEAN_MOTION_DOT": 0.00029943,
    "MEAN_MOTION_DDOT": 0.0,
    "TLE_LINE1": "1 62447U 24251R   25315.02876639  .00029943  00000+0  10181-2 0  9993",
    "TLE_LINE2": "2 62447  53.1615 166.2709 0000899 199.5167 160.5800 15.30230277 49789",
    "COMMENT": "Grouped by shell and plane from TLE"
  },
  {
    "OBJECT_NAME": "STARLINK-32719",
    "OBJECT_ID": "24251S",
    "EPOCH": "2025-11-11T06:53:15.072000",
    "MEAN_MOTION": 15.30218662,
    "ECCENTRICITY": 0.0001876,
    "INCLINATION": 53.1547,
    "RA_OF_ASC_NODE": 165.606,
    "ARG_OF_PERICENTER": 86.209,
    "MEAN_ANOMALY": 273.9125,
    "EPHEMERIS_TYPE": 0,
    "CLASSIFICATION_TYPE": "U",
    "NORAD_CAT_ID": 62448,
    "ELEMENT_SET_NO": 999,
    "REV_AT_EPOCH": 4964,
    "BSTAR": 0.0012398,
    "MEAN_MOTION_DOT": 0.00036563,
    "MEAN_MOTION_DDOT": 0.0,
    "TLE_LINE1": "1 62448U 24251S   25315.28698000  .00036563  00000+0  12398-2 0  9994",
    "TLE_LINE2": "2 62448  53.1547 165.6060 0001876  86.2090 273.9125 15.30218662 49648",
    "COMMENT": "Grouped by shell and plane from TLE"
  },
  {
    "OBJECT_NAME": "STARLINK-32723",
    "OBJECT_ID": "24251T",
    "EPOCH": "2025-11-11T00:55:06.332736",
    "MEAN_MOTION": 15.30191643,
    "ECCENTRICITY": 9.72e-05,
    "INCLINATION": 53.1582,
    "RA_OF_ASC_NODE": 166.3347,
    "ARG_OF_PERICENTER": 86.4235,
    "MEAN_ANOMALY": 273.6877,
    "EPHEMERIS_TYPE": 0,
    "CLASSIFICATION_TYPE": "U",
    "NORAD_CAT_ID": 62449,
    "ELEMENT_SET_NO": 999,
    "REV_AT_EPOCH": 4962,
    "BSTAR": 0.0012227,
    "MEAN_MOTION_DOT": 0.00036018,
    "MEAN_MOTION_DDOT": 0.0,
    "TLE_LINE1": "1 62449U 24251T   25315.03826774  .00036018  00000+0  12227-2 0  9995",
    "TLE_LINE2": "2 62449  53.1582 166.3347 0000972  86.4235 273.6877 15.30191643 49621",
    "COMMENT": "Grouped by shell and plane from TLE"
  },
  {
    "OBJECT_NAME": "STARLINK-32722",
    "OBJECT_ID": "24251U",
    "EPOCH": "2025-11-11T02:21:33.888960",
    "MEAN_MOTION": 15.30214109,
    "ECCENTRICITY": 0.0001005,
    "INCLINATION": 53.1576,
    "RA_OF_ASC_NODE": 165.9946,
    "ARG_OF_PERICENTER": 82.8259,
    "MEAN_ANOMALY": 277.2856,
    "EPHEMERIS_TYPE": 0,
    "CLASSIFICATION_TYPE": "U",
    "NORAD_CAT_ID": 62450,
    "ELEMENT_SET_NO": 999,
    "REV_AT_EPOCH": 4942,
    "BSTAR": 0.0014171000000000001,
    "MEAN_MOTION_DOT": 0.00041866,
    "MEAN_MOTION_DDOT": 0.0,
    "TLE_LINE1": "1 62450U 24251U   25315.09830890  .00041866  00000+0  14171-2 0  9994",
    "TLE_LINE2": "2 62450  53.1576 165.9946 0001005  82.8259 277.2856 15.30214109 49428",
    "COMMENT": "Grouped by shell and plane from TLE"
  }
]